{
  "norad_id": 65685,
  "name": "STARLINK-35145",
  "history": [
    {
      "epoch": "2026-03-28T20:26:03.459552",
      "apogee_km": 475.9020110752899,
      "perigee_km": 474.4255359566441,
      "latitude_deg": 53.15764045803699,
      "longitude_deg": 110.23717728001066,
      "semi_major_axis_km": 6853.300773515967,
      "eccentricity": 0.00010772,
      "inclination_deg": 53.1583,
      "raan_deg": 256.9303,
      "arg_perigee_deg": 65.3572,
      "mean_anomaly_deg": 294.7541,
      "mean_motion_rev_day": 15.3021718
    }
  ]
}