{"fetched_at":"2026-03-29T16:36:15Z","count":15609,"tles":[{"name":"STARLINK-35145","line1":"1 65685U 25212K   26087.85142893  .00020007  00000+0  68543-3 0  9992","line2":"2 65685  53.1583 256.9303 0001077  65.3572 294.7541 15.30217180 30124","category":"Starlink"}]}